[{"OBJECT_NAME":"STARLINK-31444","OBJECT_ID":"2024-049F","EPOCH":"2026-03-09T00:40:58.803168","MEAN_MOTION":15.27576671,"ECCENTRICITY":0.00011949,"INCLINATION":43.0029,"RA_OF_ASC_NODE":77.7673,"ARG_OF_PERICENTER":254.9284,"MEAN_ANOMALY":105.1436,"EPHEMERIS_TYPE":0,"CLASSIFICATION_TYPE":"U","NORAD_CAT_ID":59236,"ELEMENT_SET_NO":999,"REV_AT_EPOCH":11307,"BSTAR":-9.724308e-6,"MEAN_MOTION_DOT":-5.3e-6,"MEAN_MOTION_DDOT":0},{"OBJECT_NAME":"ARCSTONE","OBJECT_ID":"2025-135N","EPOCH":"2026-03-09T21:21:29.017152","MEAN_MOTION":15.28638458,"ECCENTRICITY":0.00041199,"INCLINATION":97.4495,"RA_OF_ASC_NODE":185.9194,"ARG_OF_PERICENTER":166.7863,"MEAN_ANOMALY":193.3485,"EPHEMERIS_TYPE":0,"CLASSIFICATION_TYPE":"U","NORAD_CAT_ID":64540,"ELEMENT_SET_NO":999,"REV_AT_EPOCH":3984,"BSTAR":0.00094899777,"MEAN_MOTION_DOT":0.00026427,"MEAN_MOTION_DDOT":0}]
